NORAD_CAT_ID,OBJECT_NAME,OBJECT_TYPE,EPOCH,MEAN_MOTION,ECCENTRICITY,INCLINATION,RA_OF_ASC_NODE,ARG_OF_PERICENTER,MEAN_ANOMALY,BSTAR,MEAN_MOTION_DOT,MEAN_MOTION_DDOT,TLE_LINE0,TLE_LINE1,TLE_LINE2,SEMIMAJOR_AXIS,PERIOD,APOGEE,PERIGEE,DECAYED
52299.0,STARLINK-3759,PAYLOAD,2022-07-16 14:00:01,15.11322294,0.0001341999999999,53.2175,319.1824,69.2923,277.1172,-0.045446,-0.0072098999999999,0.0,0 STARLINK-3759,1 52299U 22041AQ  22197.58334491 -.00720990  00000-0 -45446-1 0  9997,2 52299  53.2175 319.1824 0001342  69.2923 277.1172 15.11322294  1302,6910.303000000001,95.281,533.096,531.241,0.0
52299.0,STARLINK-3759,PAYLOAD,2022-07-16 22:00:00,15.1081464,0.0001217,53.2173,317.6816,89.7797,270.8973,-0.046383,-0.00725201,0.0,0 STARLINK-3759,1 52299U 22041AQ  22197.91667824 -.00725201  00000-0 -46383-1 0  9994,2 52299  53.2173 317.6816 0001217  89.7797 270.8973 15.10814640  1311,6911.851,95.313,534.557,532.875,0.0
52299.0,STARLINK-3759,PAYLOAD,2022-07-17 06:00:00,15.10300132,0.0001252999999999,53.2173,316.1808,94.958,279.3768,-0.046561,-0.00718168,0.0,0 STARLINK-3759,1 52299U 22041AQ  22198.25001157 -.00718168  00000-0 -46561-1 0  9995,2 52299  53.2173 316.1808 0001253  94.9580 279.3768 15.10300132 14725,6913.420999999999,95.345,536.1519999999998,534.42,0.0
52299.0,STARLINK-3759,PAYLOAD,2022-07-17 14:00:01,15.09794693,0.0001291999999999,53.2174,314.6843,79.1304,308.2443,-0.047779,-0.00726126,0.0,0 STARLINK-3759,1 52299U 22041AQ  22198.58334491 -.00726126  00000-0 -47779-1 0  9996,2 52299  53.2174 314.6843 0001292  79.1304 308.2443 15.09794693  1309,6914.964,95.377,537.722,535.935,0.0
52299.0,STARLINK-3759,PAYLOAD,2022-07-17 22:00:00,15.09203333,0.0001301,53.2173,313.1865,85.0108,314.8048,-0.026624,-0.00404818,0.0,0 STARLINK-3759,1 52299U 22041AQ  22198.91667824 -.00404818  00000-0 -26624-1 0  9999,2 52299  53.2173 313.1865 0001301  85.0108 314.8048 15.09203333 14826,6916.77,95.415,539.535,537.735,0.0
52299.0,STARLINK-3759,PAYLOAD,2022-07-18 06:00:00,15.08839362,0.0001347,53.2174,311.6885,82.9757,328.7125,-0.00032747,-5.496e-05,0.0,0 STARLINK-3759,1 52299U 22041AQ  22199.25001157 -.00005496  00000-0 -32747-3 0  9992,2 52299  53.2174 311.6885 0001347  82.9757 328.7125 15.08839362 14880,6917.882,95.438,540.679,538.816,0.0
52299.0,STARLINK-3759,PAYLOAD,2022-07-18 14:00:01,15.08883533,0.0001633,53.2164,310.1889,73.6179,349.6517,-0.0050225,-0.00079435,0.0,0 STARLINK-3759,1 52299U 22041AQ  22199.58334491 -.00079435  00000-0 -50225-2 0  9992,2 52299  53.2164 310.1889 0001633  73.6179 349.6517 15.08883533  1309,6917.746999999999,95.435,540.742,538.4830000000002,0.0
52299.0,STARLINK-3759,PAYLOAD,2022-07-18 22:00:00,15.08815366,0.000149,53.2169,308.6953,67.4957,7.39,0.001979,0.00031327,0.0,0 STARLINK-3759,1 52299U 22041AQ  22199.91667824  .00031327  00000-0  19790-2 0  9996,2 52299  53.2169 308.6953 0001490  67.4957   7.3900 15.08815366  1307,6917.956,95.439,540.851,538.79,0.0
52299.0,STARLINK-3759,PAYLOAD,2022-07-19 06:00:00,15.0881489,0.0001323,53.216,307.1898,77.8869,8.6587,0.00030577,4.578e-05,0.0,0 STARLINK-3759,1 52299U 22041AQ  22200.25001157  .00004578  00000-0  30577-3 0  9992,2 52299  53.2160 307.1898 0001323  77.8869   8.6587 15.08814890 15033,6917.956999999999,95.439,540.737,538.9069999999998,0.0
52299.0,STARLINK-3759,PAYLOAD,2022-07-19 14:00:01,15.08823664,0.0001373,53.216,305.6951,68.0718,30.0573,-0.00010163,-1.904e-05,0.0,0 STARLINK-3759,1 52299U 22041AQ  22200.58334491 -.00001904  00000-0 -10163-3 0  9999,2 52299  53.2160 305.6951 0001373  68.0718  30.0573 15.08823664  1304,6917.93,95.439,540.745,538.845,0.0
52299.0,STARLINK-3759,PAYLOAD,2022-07-19 22:00:00,15.08870665,0.0001447,53.2164,304.202,64.8989,44.794,-0.0054681,-0.00086343,0.0,0 STARLINK-3759,1 52299U 22041AQ  22200.91667824 -.00086343  00000-0 -54681-2 0  9997,2 52299  53.2164 304.2020 0001447  64.8989  44.7940 15.08870665  1309,6917.7869999999975,95.436,540.653,538.651,0.0
52299.0,STARLINK-3759,PAYLOAD,2022-07-20 06:00:00,15.0882031,0.0001384,53.2163,302.7004,75.8727,45.4516,0.0029868,0.00047542,0.0,0 STARLINK-3759,1 52299U 22041AQ  22201.25001157  .00047542  00000-0  29868-2 0  9991,2 52299  53.2163 302.7004 0001384  75.8727  45.4516 15.08820310 15185,6917.941,95.439,540.763,538.8480000000002,0.0
52299.0,STARLINK-3759,PAYLOAD,2022-07-20 14:00:01,15.0884684,0.0001506999999999,53.2163,301.2058,67.5275,65.3864,0.00024839,3.668e-05,0.0,0 STARLINK-3759,1 52299U 22041AQ  22201.58334491  .00003668  00000-0  24839-3 0  9992,2 52299  53.2163 301.2058 0001507  67.5275  65.3864 15.08846840  1303,6917.859,95.437,540.7669999999998,538.682,0.0
52299.0,STARLINK-3759,PAYLOAD,2022-07-20 22:00:01,15.08871487,0.000145,53.2163,299.7086,68.5894,75.9774,-0.0057721,-0.00091069,0.0,0 STARLINK-3759,1 52299U 22041AQ  22201.91668981 -.00091069  00000-0 -57721-2 0  9992,2 52299  53.2163 299.7086 0001450  68.5894  75.9774 15.08871487  1302,6917.784000000002,95.436,540.6519999999998,538.646,0.0
52299.0,STARLINK-3759,PAYLOAD,2022-07-21 14:00:01,15.0883231,0.0001571999999999,53.2165,296.7165,69.27600000000001,98.4538,0.0005172999999999,7.953e-05,0.0,0 STARLINK-3759,1 52299U 22041AQ  22202.58335648  .00007953  00000-0  51730-3 0  9999,2 52299  53.2165 296.7165 0001572  69.2760  98.4538 15.08832310  1304,6917.904,95.438,540.856,538.681,0.0
52299.0,STARLINK-3759,PAYLOAD,2022-07-21 22:00:00,15.08863146,0.0001462,53.2163,295.2192,70.6697,108.5833,-0.0019557,-0.00031298,0.0,0 STARLINK-3759,1 52299U 22041AQ  22202.91667824 -.00031298  00000-0 -19557-2 0  9991,2 52299  53.2163 295.2192 0001462  70.6697 108.5833 15.08863146  1301,6917.81,95.436,540.686,538.663,0.0
52299.0,STARLINK-3759,PAYLOAD,2022-07-22 06:00:00,15.0884589,0.0001375,53.2167,293.722,77.9722,112.8902,-0.00059606,-9.763e-05,0.0,0 STARLINK-3759,1 52299U 22041AQ  22203.25001157 -.00009763  00000-0 -59606-3 0  9992,2 52299  53.2167 293.7220 0001375  77.9722 112.8902 15.08845890  1303,6917.861999999999,95.437,540.679,538.776,0.0
52299.0,STARLINK-3759,PAYLOAD,2022-07-22 22:00:00,15.08865093,0.0001364,53.2162,290.7299,70.2208,143.8409,-0.00302,-0.00048063,0.0,0 STARLINK-3759,1 52299U 22041AQ  22203.91667824 -.00048063  00000-0 -30200-2 0  9998,2 52299  53.2162 290.7299 0001364  70.2208 143.8409 15.08865093 15582,6917.804,95.436,540.612,538.725,0.0
52299.0,STARLINK-3759,PAYLOAD,2022-07-23 14:00:01,15.08803885,0.0001546,53.2161,287.7383,70.077,167.22799999999995,0.0012272,0.00019278,0.0,0 STARLINK-3759,1 52299U 22041AQ  22204.58335648  .00019278  00000-0  12272-2 0  9991,2 52299  53.2161 287.7383 0001546  70.0770 167.2280 15.08803885  1308,6917.991,95.44,540.925,538.786,0.0
52299.0,STARLINK-3759,PAYLOAD,2022-07-23 22:00:00,15.08840348,0.0001447,53.2158,286.2408,73.0866,175.7225,-0.0014378,-0.00023098,0.0,0 STARLINK-3759,1 52299U 22041AQ  22204.91667824 -.00023098  00000-0 -14378-2 0  9998,2 52299  53.2158 286.2408 0001447  73.0866 175.7225 15.08840348  1303,6917.879,95.438,540.745,538.743,0.0
52299.0,STARLINK-3759,PAYLOAD,2022-07-24 14:00:01,15.0882869,0.0001503,53.2158,283.2495,69.4137,202.5636,0.00016403,2.323e-05,0.0,0 STARLINK-3759,1 52299U 22041AQ  22205.58334491  .00002323  00000-0  16403-3 0  9991,2 52299  53.2158 283.2495 0001503  69.4137 202.5636 15.08828690 15833,6917.915,95.438,540.82,538.74,0.0
52299.0,STARLINK-3759,PAYLOAD,2022-07-24 22:00:00,15.08832411,0.000134,53.2156,281.7518,71.4063,212.1577,-0.0024394,-0.00038893,0.0,0 STARLINK-3759,1 52299U 22041AQ  22205.91667824 -.00038893  00000-0 -24394-2 0  9997,2 52299  53.2156 281.7518 0001340  71.4063 212.1577 15.08832411  1304,6917.904,95.438,540.696,538.842,0.0
52299.0,STARLINK-3759,PAYLOAD,2022-07-25 14:00:01,15.08803272,0.0001440999999999,53.2156,278.7606,66.1247,240.5796,0.0020047,0.00031729,0.0,0 STARLINK-3759,1 52299U 22041AQ  22206.58334491  .00031729  00000-0  20047-2 0  9992,2 52299  53.2156 278.7606 0001441  66.1247 240.5796 15.08803272 15985,6917.993,95.44,540.855,538.861,0.0
52299.0,STARLINK-3759,PAYLOAD,2022-07-25 22:00:00,15.08831843,0.0001334,53.2155,277.2629,69.265,249.0031,-0.0012335999999999,-0.00019862,0.0,0 STARLINK-3759,1 52299U 22041AQ  22206.91667824 -.00019862  00000-0 -12336-2 0  9996,2 52299  53.2155 277.2629 0001334  69.2650 249.0031 15.08831843  1308,6917.905,95.438,540.693,538.847,0.0
52299.0,STARLINK-3759,PAYLOAD,2022-07-26 06:00:00,15.08835942,0.0001367,53.2156,275.7663,74.2562,255.5822,-0.00023712,-4.059e-05,0.0,0 STARLINK-3759,1 52299U 22041AQ  22207.25001157 -.00004059  00000-0 -23712-3 0  9998,2 52299  53.2156 275.7663 0001367  74.2562 255.5822 15.08835942 16089,6917.893,95.438,540.703,538.812,0.0
52299.0,STARLINK-3759,PAYLOAD,2022-07-26 14:00:01,15.08812132,0.0001476999999999,53.2156,274.2717,64.0093,277.4217,0.0022658,0.00035929,0.0,0 STARLINK-3759,1 52299U 22041AQ  22207.58334491  .00035929  00000-0  22658-2 0  9999,2 52299  53.2156 274.2717 0001477  64.0093 277.4217 15.08812132  1307,6917.965999999999,95.439,540.852,538.809,0.0
52299.0,STARLINK-3759,PAYLOAD,2022-07-26 22:00:00,15.08839032,0.000137,53.2156,272.7739,67.7472,285.2625,-0.00078638,-0.00012781,0.0,0 STARLINK-3759,1 52299U 22041AQ  22207.91667824 -.00012781  00000-0 -78638-3 0  9998,2 52299  53.2156 272.7739 0001370  67.7472 285.2625 15.08839032  1305,6917.8830000000025,95.438,540.696,538.8009999999998,0.0
52299.0,STARLINK-3759,PAYLOAD,2022-07-27 14:00:01,15.08823137,0.0001501999999999,53.2156,269.7827,62.0478,314.1565,0.0025413,0.0004037,0.0,0 STARLINK-3759,1 52299U 22041AQ  22208.58334491  .00040370  00000-0  25413-2 0  9998,2 52299  53.2156 269.7827 0001502  62.0478 314.1565 15.08823137  1304,6917.932,95.439,540.836,538.758,0.0
52299.0,STARLINK-3759,PAYLOAD,2022-07-27 22:00:00,15.08847867,0.0001386999999999,53.2157,268.2847,67.1542,320.6463,-0.00020272,-3.513e-05,0.0,0 STARLINK-3759,1 52299U 22041AQ  22208.91667824 -.00003513  00000-0 -20272-3 0  9993,2 52299  53.2157 268.2847 0001387  67.1542 320.6463 15.08847867  1305,6917.856,95.437,540.681,538.762,0.0
